CCSDS_OMM_VERS = 2.0
CREATION_DATE  = 
ORIGINATOR     = 

OBJECT_NAME    = SHENZHOU-21 (SZ-21)
OBJECT_ID      = 2025-246A
CENTER_NAME    = EARTH
REF_FRAME      = TEME
TIME_SYSTEM    = UTC
MEAN_ELEMENT_THEORY = SGP/SGP4

EPOCH          = 2025-11-12T03:49:11.437824
MEAN_MOTION    = 15.60957853
ECCENTRICITY   = .00043888
INCLINATION    = 41.4652
RA_OF_ASC_NODE = 202.3333
ARG_OF_PERICENTER = 9.4250
MEAN_ANOMALY   = 350.6671

EPHEMERIS_TYPE = 0
CLASSIFICATION_TYPE = U
NORAD_CAT_ID   = 66263
ELEMENT_SET_NO = 999
REV_AT_EPOCH   = 25813
BSTAR          = .43344823E-3
MEAN_MOTION_DOT = .37252E-3
MEAN_MOTION_DDOT = 0

